start=new Date('2021-10-27T00:00:00.000Z').valueOf();
sats=[{"APOAPSIS":"548.163","ELEMENT_SET_NO":"999","INCLINATION":"53.0572","FILE":"3185039","MEAN_MOTION_DDOT":"0.0000000000000","REV_AT_EPOCH":"2731","TLE_LINE1":"1 48367U 21038Q   21299.46128708  .00000684  00000-0  64818-4 0  9990","BSTAR":"0.00006481800000","SEMIMAJOR_AXIS":"6925.321","COUNTRY_CODE":"US","DECAY_DATE":null,"OBJECT_TYPE":"PAYLOAD","CENTER_NAME":"EARTH","MEAN_ANOMALY":"276.2216","RA_OF_ASC_NODE":"312.8741","OBJECT_NAME":"STARLINK-2643","MEAN_ELEMENT_THEORY":"SGP4","SITE":"AFETR","CLASSIFICATION_TYPE":"U","EPOCH":"2021-10-26T11:04:15.203712","ECCENTRICITY":"0.00014110","TLE_LINE2":"2 48367  53.0572 312.8741 0001411  83.8934 276.2216 15.06409057 27316","OBJECT_ID":"2021-038Q","ARG_OF_PERICENTER":"83.8934","NORAD_CAT_ID":"48367","GP_ID":"188202665","PERIAPSIS":"546.209","EPHEMERIS_TYPE":"0","MEAN_MOTION_DOT":"0.00000684","MEAN_MOTION":"15.06409057","PERIOD":"95.592","REF_FRAME":"TEME","LAUNCH_DATE":"2021-05-04","RCS_SIZE":"LARGE","TIME_SYSTEM":"UTC"},{"RCS_SIZE":"LARGE","TIME_SYSTEM":"UTC","LAUNCH_DATE":"2021-05-04","PERIOD":"95.592","REF_FRAME":"TEME","MEAN_MOTION_DOT":"0.00001517","MEAN_MOTION":"15.06400528","EPHEMERIS_TYPE":"0","PERIAPSIS":"546.266","GP_ID":"188200560","NORAD_CAT_ID":"48368","ARG_OF_PERICENTER":"79.5368","OBJECT_ID":"2021-038R","TLE_LINE2":"2 48368  53.0553 313.0839 0001366  79.5368 280.5775 15.06400528 26725","OBJECT_NAME":"STARLINK-2623","CLASSIFICATION_TYPE":"U","ECCENTRICITY":"0.00013660","EPOCH":"2021-10-26T09:53:53.475936","SITE":"AFETR","MEAN_ELEMENT_THEORY":"SGP4","MEAN_ANOMALY":"280.5775","RA_OF_ASC_NODE":"313.0839","DECAY_DATE":null,"COUNTRY_CODE":"US","CENTER_NAME":"EARTH","OBJECT_TYPE":"PAYLOAD","TLE_LINE1":"1 48368U 21038R   21299.41242449  .00001517  00000-0  12069-3 0  9991","BSTAR":"0.00012069000000","SEMIMAJOR_AXIS":"6925.347","FILE":"3184921","INCLINATION":"53.0553","MEAN_MOTION_DDOT":"0.0000000000000","REV_AT_EPOCH":"2672","ELEMENT_SET_NO":"999","APOAPSIS":"548.158"},{"LAUNCH_DATE":"2021-05-04","RCS_SIZE":"LARGE","TIME_SYSTEM":"UTC","MEAN_MOTION_DOT":"-0.00000532","MEAN_MOTION":"15.06402156","REF_FRAME":"TEME","PERIOD":"95.592","PERIAPSIS":"546.113","EPHEMERIS_TYPE":"0","NORAD_CAT_ID":"48369","ARG_OF_PERICENTER":"74.7774","OBJECT_ID":"2021-038S","GP_ID":"188202688","OBJECT_NAME":"STARLINK-2641","MEAN_ELEMENT_THEORY":"SGP4","SITE":"AFETR","CLASSIFICATION_TYPE":"U","ECCENTRICITY":"0.00015790","EPOCH":"2021-10-26T10:58:56.908704","TLE_LINE2":"2 48369  53.0531 312.8895 0001579  74.7774 285.3389 15.06402156 27314","MEAN_ANOMALY":"285.3389","RA_OF_ASC_NODE":"312.8895","TLE_LINE1":"1 48369U 21038S   21299.45760311 -.00000532  00000-0 -16792-4 0  9995","SEMIMAJOR_AXIS":"6925.342","BSTAR":"-0.00001679200000","DECAY_DATE":null,"COUNTRY_CODE":"US","OBJECT_TYPE":"PAYLOAD","CENTER_NAME":"EARTH","APOAPSIS":"548.300","ELEMENT_SET_NO":"999","FILE":"3185040","MEAN_MOTION_DDOT":"0.0000000000000","REV_AT_EPOCH":"2731","INCLINATION":"53.0531"},{"TLE_LINE1":"1 48370U 21038T   21299.45391848  .00000162  00000-0  29764-4 0  9992","SEMIMAJOR_AXIS":"6925.335","BSTAR":"0.00002976400000","COUNTRY_CODE":"US","DECAY_DATE":null,"OBJECT_TYPE":"PAYLOAD","CENTER_NAME":"EARTH","APOAPSIS":"548.033","ELEMENT_SET_NO":"999","MEAN_MOTION_DDOT":"0.0000000000000","FILE":"3184921","INCLINATION":"53.0554","REV_AT_EPOCH":"2672","OBJECT_NAME":"STARLINK-2621","MEAN_ELEMENT_THEORY":"SGP4","SITE":"AFETR","CLASSIFICATION_TYPE":"U","ECCENTRICITY":"0.00012020","EPOCH":"2021-10-26T10:53:38.556672","TLE_LINE2":"2 48370  53.0554 312.9006 0001202  75.1637 284.9485 15.06404324 26727","MEAN_ANOMALY":"284.9485","RA_OF_ASC_NODE":"312.9006","PERIAPSIS":"546.368","EPHEMERIS_TYPE":"0","ARG_OF_PERICENTER":"75.1637","NORAD_CAT_ID":"48370","OBJECT_ID":"2021-038T","GP_ID":"188199564","LAUNCH_DATE":"2021-05-04","TIME_SYSTEM":"UTC","RCS_SIZE":"LARGE","MEAN_MOTION_DOT":"0.00000162","MEAN_MOTION":"15.06404324","PERIOD":"95.592","REF_FRAME":"TEME"},{"APOAPSIS":"548.041","ELEMENT_SET_NO":"999","MEAN_MOTION_DDOT":"0.0000000000000","FILE":"3185045","INCLINATION":"53.0564","REV_AT_EPOCH":"2731","TLE_LINE1":"1 48371U 21038U   21299.45023696  .00002400  00000-0  17989-3 0  9998","BSTAR":"0.00017989000000","SEMIMAJOR_AXIS":"6925.316","COUNTRY_CODE":"US","DECAY_DATE":null,"OBJECT_TYPE":"PAYLOAD","CENTER_NAME":"EARTH","MEAN_ANOMALY":"282.0338","RA_OF_ASC_NODE":"312.9218","OBJECT_NAME":"STARLINK-2589","SITE":"AFETR","MEAN_ELEMENT_THEORY":"SGP4","CLASSIFICATION_TYPE":"U","ECCENTRICITY":"0.00012430","EPOCH":"2021-10-26T10:48:20.473344","TLE_LINE2":"2 48371  53.0564 312.9218 0001243  78.0790 282.0338 15.06410776 27311","OBJECT_ID":"2021-038U","ARG_OF_PERICENTER":"78.0790","NORAD_CAT_ID":"48371","GP_ID":"188202679","PERIAPSIS":"546.320","EPHEMERIS_TYPE":"0","MEAN_MOTION_DOT":"0.00002400","MEAN_MOTION":"15.06410776","PERIOD":"95.591","REF_FRAME":"TEME","LAUNCH_DATE":"2021-05-04","TIME_SYSTEM":"UTC","RCS_SIZE":"LARGE"},{"EPHEMERIS_TYPE":"0","PERIAPSIS":"546.218","NORAD_CAT_ID":"48372","OBJECT_ID":"2021-038V","ARG_OF_PERICENTER":"86.6028","GP_ID":"188200061","TIME_SYSTEM":"UTC","RCS_SIZE":"LARGE","LAUNCH_DATE":"2021-05-04","MEAN_MOTION":"15.06418682","MEAN_MOTION_DOT":"0.00005371","PERIOD":"95.591","REF_FRAME":"TEME","BSTAR":"0.00037900000000","SEMIMAJOR_AXIS":"6925.291","TLE_LINE1":"1 48372U 21038V   21299.44655622  .00005371  00000-0  37900-3 0  9993","CENTER_NAME":"EARTH","OBJECT_TYPE":"PAYLOAD","DECAY_DATE":null,"COUNTRY_CODE":"US","ELEMENT_SET_NO":"999","APOAPSIS":"548.095","FILE":"3184921","REV_AT_EPOCH":"2672","MEAN_MOTION_DDOT":"0.0000000000000","INCLINATION":"53.0555","CLASSIFICATION_TYPE":"U","EPOCH":"2021-10-26T10:43:02.457408","ECCENTRICITY":"0.00013550","SITE":"AFETR","MEAN_ELEMENT_THEORY":"SGP4","OBJECT_NAME":"STARLINK-2572","TLE_LINE2":"2 48372  53.0555 312.9355 0001355  86.6028 273.5116 15.06418682 26724","RA_OF_ASC_NODE":"312.9355","MEAN_ANOMALY":"273.5116"},{"LAUNCH_DATE":"2021-05-04","RCS_SIZE":"LARGE","TIME_SYSTEM":"UTC","PERIOD":"95.591","REF_FRAME":"TEME","MEAN_MOTION_DOT":"0.00002464","MEAN_MOTION":"15.06420164","PERIAPSIS":"546.222","EPHEMERIS_TYPE":"0","GP_ID":"188198813","OBJECT_ID":"2021-038W","ARG_OF_PERICENTER":"75.3752","NORAD_CAT_ID":"48373","TLE_LINE2":"2 48373  53.0576 313.5550 0001343  75.3752 284.7386 15.06420164 26707","OBJECT_NAME":"STARLINK-2609","MEAN_ELEMENT_THEORY":"SGP4","SITE":"AFETR","CLASSIFICATION_TYPE":"U","EPOCH":"2021-10-26T07:26:36.450240","ECCENTRICITY":"0.00013430","MEAN_ANOMALY":"284.7386","RA_OF_ASC_NODE":"313.5550","DECAY_DATE":null,"COUNTRY_CODE":"US","OBJECT_TYPE":"PAYLOAD","CENTER_NAME":"EARTH","TLE_LINE1":"1 48373U 21038W   21299.31014410  .00002464  00000-0  18416-3 0  9995","BSTAR":"0.00018416000000","SEMIMAJOR_AXIS":"6925.287","MEAN_MOTION_DDOT":"0.0000000000000","FILE":"3184921","REV_AT_EPOCH":"2670","INCLINATION":"53.0576","APOAPSIS":"548.082","ELEMENT_SET_NO":"999"},{"MEAN_ANOMALY":"281.9556","RA_OF_ASC_NODE":"312.9665","OBJECT_NAME":"STARLINK-2604","MEAN_ELEMENT_THEORY":"SGP4","SITE":"AFETR","EPOCH":"2021-10-26T10:32:24.369216","CLASSIFICATION_TYPE":"U","ECCENTRICITY":"0.00013590","TLE_LINE2":"2 48374  53.0563 312.9665 0001359  78.1586 281.9556 15.06399235 27317","APOAPSIS":"548.157","ELEMENT_SET_NO":"999","FILE":"3185047","INCLINATION":"53.0563","MEAN_MOTION_DDOT":"0.0000000000000","REV_AT_EPOCH":"2731","TLE_LINE1":"1 48374U 21038X   21299.43917094  .00001689  00000-0  13223-3 0  9998","BSTAR":"0.00013223000000","SEMIMAJOR_AXIS":"6925.351","COUNTRY_CODE":"US","DECAY_DATE":null,"OBJECT_TYPE":"PAYLOAD","CENTER_NAME":"EARTH","MEAN_MOTION_DOT":"0.00001689","MEAN_MOTION":"15.06399235","PERIOD":"95.592","REF_FRAME":"TEME","LAUNCH_DATE":"2021-05-04","RCS_SIZE":"LARGE","TIME_SYSTEM":"UTC","ARG_OF_PERICENTER":"78.1586","NORAD_CAT_ID":"48374","OBJECT_ID":"2021-038X","GP_ID":"188203530","PERIAPSIS":"546.275","EPHEMERIS_TYPE":"0"},{"GP_ID":"188203526","ARG_OF_PERICENTER":"76.2585","OBJECT_ID":"2021-038Y","NORAD_CAT_ID":"48375","EPHEMERIS_TYPE":"0","PERIAPSIS":"546.329","REF_FRAME":"TEME","PERIOD":"95.592","MEAN_MOTION_DOT":"0.00000332","MEAN_MOTION":"15.06395503","TIME_SYSTEM":"UTC","RCS_SIZE":"LARGE","LAUNCH_DATE":"2021-05-04","REV_AT_EPOCH":"2731","FILE":"3185047","MEAN_MOTION_DDOT":"0.0000000000000","INCLINATION":"53.0569","ELEMENT_SET_NO":"999","APOAPSIS":"548.126","DECAY_DATE":null,"COUNTRY_CODE":"US","CENTER_NAME":"EARTH","OBJECT_TYPE":"PAYLOAD","TLE_LINE1":"1 48375U 21038Y   21299.43548935  .00000332  00000-0  41161-4 0  9990","BSTAR":"0.00004116100000","SEMIMAJOR_AXIS":"6925.362","MEAN_ANOMALY":"283.8548","RA_OF_ASC_NODE":"312.9899","TLE_LINE2":"2 48375  53.0569 312.9899 0001297  76.2585 283.8548 15.06395503 27318","OBJECT_NAME":"STARLINK-2603","ECCENTRICITY":"0.00012970","CLASSIFICATION_TYPE":"U","EPOCH":"2021-10-26T10:27:06.279840","SITE":"AFETR","MEAN_ELEMENT_THEORY":"SGP4"},{"SITE":"AFETR","MEAN_ELEMENT_THEORY":"SGP4","EPOCH":"2021-10-26T10:21:47.822400","CLASSIFICATION_TYPE":"U","ECCENTRICITY":"0.00016300","OBJECT_NAME":"STARLINK-2610","TLE_LINE2":"2 48376  53.0574 313.0075 0001630  69.4901 290.6263 15.06397631 26728","RA_OF_ASC_NODE":"313.0075","MEAN_ANOMALY":"290.6263","BSTAR":"0.00000635540000","SEMIMAJOR_AXIS":"6925.356","TLE_LINE1":"1 48376U 21038Z   21299.43180350 -.00000187  00000-0  63554-5 0  9994","OBJECT_TYPE":"PAYLOAD","CENTER_NAME":"EARTH","COUNTRY_CODE":"US","DECAY_DATE":null,"APOAPSIS":"548.350","ELEMENT_SET_NO":"999","MEAN_MOTION_DDOT":"0.0000000000000","FILE":"3184921","INCLINATION":"53.0574","REV_AT_EPOCH":"2672","LAUNCH_DATE":"2021-05-04","RCS_SIZE":"LARGE","TIME_SYSTEM":"UTC","MEAN_MOTION":"15.06397631","MEAN_MOTION_DOT":"-0.00000187","REF_FRAME":"TEME","PERIOD":"95.592","PERIAPSIS":"546.092","EPHEMERIS_TYPE":"0","OBJECT_ID":"2021-038Z","ARG_OF_PERICENTER":"69.4901","NORAD_CAT_ID":"48376","GP_ID":"188200561"}];
